STARLINK-32386          
1 61213U 24171P   24269.50001157 -.01012555  00000+0 -36066-2 0  9993
2 61213  53.1646 272.4130 0000697  61.6347 253.1449 15.90438205  1992
STARLINK-32392          
1 61214U 24171Q   24269.50001157 -.01186403  41255-3 -37148-2 0  9991
2 61214  53.1647 272.4044 0000733  61.8954 257.0084 15.90815233  1993
STARLINK-32436          
1 61215U 24171R   24269.50001157 -.01038028  00000+0 -36702-2 0  9995
2 61215  53.1646 272.4086 0000897  65.6625 251.2567 15.90636261  1991
STARLINK-32425          
1 61216U 24171S   24269.50001157 -.01209000  42760-3 -37556-2 0  9997
2 61216  53.1647 272.4008 0000588  72.5498 248.1512 15.90974409  1993
STARLINK-32342          
1 61217U 24171T   24269.50001157 -.01242257  45010-3 -38205-2 0  9992
2 61217  53.1647 272.3963 0000921  64.2731 258.5943 15.91174590  1999
STARLINK-32423          
1 61218U 24171U   24269.50001157 -.01256228  45990-3 -38397-2 0  9995
2 61218  53.1647 272.3933 0000631  69.7337 254.6041 15.91297398  1995
STARLINK-32248          
1 61219U 24171V   24269.50001157 -.01263088  46483-3 -38452-2 0  9998
2 61219  53.1649 272.3911 0000810  68.4254 256.9606 15.91376308  1998
2024-172A               
1 61220U 24172A   24267.56255077  .00007152  00000+0  10256-2 0  9995
2 61220  98.0194 354.0263 0001057  55.4763 305.1471 14.76820761   384
2024-172B               
1 61221U 24172B   24267.56250160  .00005525  00000+0  79294-3 0  9994
2 61221  98.0190 354.0262 0001130  25.5390 335.4554 14.76887402   389
2024-172C               
1 61222U 24172C   24267.62997551  .00003416  00000+0  49223-3 0  9990
2 61222  98.0182 354.0933 0000465 139.8484 220.5006 14.76970208   393
2024-172D               
1 61223U 24172D   24267.62946993  .00005102  00000+0  72654-3 0  9993
2 61223  98.0174 354.0928 0001335 306.9070  53.4106 14.77256256   399
2024-172E               
1 61224U 24172E   24267.62919876  .00005508  00000+0  78091-3 0  9995
2 61224  98.0177 354.0935 0001643 269.5339  90.7560 14.77405991   384
2024-172F               
1 61225U 24172F   24267.62573163  .01497721  24803-5  13100-2 0  9996
2 61225  98.0120 354.4288 0299247 217.8154 167.5838 15.62060320   365
2024-172G               
1 61226U 24172G   24267.60783791  .00007597  00000+0  77478-3 0  9998
2 61226  98.0152 354.1226 0057191  41.8929 318.9274 14.89728393   348
2024-173A               
1 61227U 24173A   24268.70122015 -.00000071  00000+0  00000+0 0  9992
2 61227  97.4085 341.5128 0010165 268.9507 244.9224 15.23801442    71
2024-173B               
1 61228U 24173B   24268.70276226 -.00000071  00000+0  00000+0 0  9997
2 61228  97.3998 341.5192 0011788 271.4400 251.3031 15.23999465    79
2024-173C               
1 61229U 24173C   24268.70100958 -.00000071  00000+0  00000+0 0  9996
2 61229  97.4009 341.5142 0011199 271.8586 241.3120 15.24018702    79
2024-173D               
1 61230U 24173D   24268.63074231 -.00000071  00000+0  00000+0 0  9994
2 61230  97.4049 341.4509 0011695 275.1941 212.7717 15.24067925    68
2024-173E               
1 61231U 24173E   24268.63055764 -.00000071  00000+0  00000+0 0  9995
2 61231  97.3946 341.4503 0011793 274.7076 212.2805 15.24076552    04
2024-173F               
1 61232U 24173F   24268.56166360 -.00000071  00000+0  00000+0 0  9993
2 61232  97.4034 341.3763 0011148 275.4303 193.8946 15.24131282    19
2024-173G               
1 61233U 24173G   24268.63700363 -.00000072  00000+0  00000+0 0  9990
2 61233  97.4028 341.4543 0012004 282.4264 240.1451 15.24220381    23
2024-173H               
1 61234U 24173H   24268.63325154 -.00000071  00000+0  00000+0 0  9991
2 61234  97.4016 341.4486 0011263 277.2191 224.7907 15.24208849    23
2024-173J               
1 61235U 24173J   24268.63605699 -.00000073  00000+0  00000+0 0  9999
2 61235  97.3731 342.0161 0014059 170.2465 350.3665 15.26676914    05
2024-173K               
1 61236U 24173K   24268.70046014 -.00000075  00000+0  00000+0 0  9990
2 61236  97.4390 341.5281 0020387 299.6510 214.1846 15.25720479    95
2024-173L               
1 61237U 24173L   24268.69727140 -.00000104  00000+0  00000+0 0  9998
2 61237  97.6790 341.6146 0088207 313.4322 203.7047 15.35402637   129
2024-174A               
1 61238U 24174A   24269.24368397 -.00000067  00000+0  00000+0 0  9995
2 61238  97.4503 274.5355 0014994 290.9152 183.8309 15.16263745    31
2024-174B               
1 61239U 24174B   24269.23401303 -.00000067  00000+0  00000+0 0  9990
2 61239  97.4563 274.5313 0015212 290.4814 131.4028 15.16142625    36
2024-174C               
1 61240U 24174C   24269.24378289 -.00000066  00000+0  00000+0 0  9998
2 61240  97.4475 274.5359 0013466 280.0266 194.8354 15.15774315    03
2024-174D               
1 61241U 24174D   24269.24383975 -.00000067  00000+0  00000+0 0  9998
2 61241  97.4511 274.5310 0014610 277.5956 197.7575 15.16013364    09
2024-174E               
1 61242U 24174E   24269.24379446 -.00000067  00000+0  00000+0 0  9997
2 61242  97.4532 274.5456 0015768 273.5083 201.7237 15.16104417    07
2024-174F               
1 61263U 24174F   24269.24366631 -.00000067  00000+0  00000+0 0  9992
2 61263  97.4543 274.5352 0014130 282.6247 191.9404 15.16188031    02
